{
    "links": {
        "self": "http://www.neowsapp.com/rest/v1/neo/3726042?api_key=iIulBulltgU6a56xZRHN4H3l9WmuAYTsLGpBGhQ2"
    },
    "id": "3726042",
    "neo_reference_id": "3726042",
    "name": "(2015 PF229)",
    "designation": "2015 PF229",
    "nasa_jpl_url": "http://ssd.jpl.nasa.gov/sbdb.cgi?sstr=3726042",
    "absolute_magnitude_h": 22.0,
    "estimated_diameter": {
        "kilometers": {
            "estimated_diameter_min": 0.1058168859,
            "estimated_diameter_max": 0.2366137501
        },
        "meters": {
            "estimated_diameter_min": 105.8168859331,
            "estimated_diameter_max": 236.6137501138
        },
        "miles": {
            "estimated_diameter_min": 0.0657515442,
            "estimated_diameter_max": 0.1470249225
        },
        "feet": {
            "estimated_diameter_min": 347.1682720448,
            "estimated_diameter_max": 776.2918559233
        }
    },
    "is_potentially_hazardous_asteroid": false,
    "close_approach_data": [
        {
            "close_approach_date": "2015-05-07",
            "close_approach_date_full": "2015-May-07 15:32",
            "epoch_date_close_approach": 1431012720000,
            "relative_velocity": {
                "kilometers_per_second": "10.5139893742",
                "kilometers_per_hour": "37850.3617469904",
                "miles_per_hour": "23518.7428310675"
            },
            "miss_distance": {
                "astronomical": "0.1631522979",
                "lunar": "63.4662438831",
                "kilometers": "24407236.251445473",
                "miles": "15165953.3520466074"
            },
            "orbiting_body": "Earth"
        },
        {
            "close_approach_date": "2018-07-15",
            "close_approach_date_full": "2018-Jul-15 09:33",
            "epoch_date_close_approach": 1531647180000,
            "relative_velocity": {
                "kilometers_per_second": "11.7990603129",
                "kilometers_per_hour": "42476.6171263219",
                "miles_per_hour": "26393.3180138526"
            },
            "miss_distance": {
                "astronomical": "0.2569722073",
                "lunar": "99.9621886397",
                "kilometers": "38442494.861278451",
                "miles": "23887058.6491705838"
            },
            "orbiting_body": "Earth"
        }
    ],
    "orbital_data": {
        "orbit_id": "9",
        "orbit_determination_date": "2017-04-06 08:32:26",
        "first_observation_date": "2015-08-10",
        "last_observation_date": "2015-09-07",
        "data_arc_in_days": 28,
        "observations_used": 33,
        "orbit_uncertainty": "7",
        "minimum_orbit_intersection": ".114335",
        "jupiter_tisserand_invariant": "3.561",
        "epoch_osculation": "2459000.5",
        "eccentricity": ".4962516214467495",
        "semi_major_axis": "2.111004657557496",
        "inclination": "7.680616841952038",
        "ascending_node_longitude": "198.8675187343314",
        "orbital_period": "1120.294526522126",
        "perihelion_distance": "1.063415173362948",
        "perihelion_argument": "58.75409904990468",
        "aphelion_distance": "3.158594141752044",
        "perihelion_time": "2459412.910608869479",
        "mean_anomaly": "227.4742974475471",
        "mean_motion": ".3213440675440895",
        "equinox": "J2000",
        "orbit_class": {
            "orbit_class_type": "AMO",
            "orbit_class_description": "Near-Earth asteroid orbits similar to that of 1221 Amor",
            "orbit_class_range": "1.017 AU < q (perihelion) < 1.3 AU"
        }
    },
    "is_sentry_object": false
}